STARLINK-5500           
1 55634U 23021G   26068.72768598  .00000371  00000+0  38882-4 0  9998
2 55634  70.0005 204.3682 0002182 274.3850  85.7060 14.98333103168291
UM5-RIBAT               
1 60554U 24149CQ  26068.79561721  .00004725  00000+0  37993-3 0  9991
2 60554  97.6776 147.9138 0003272  87.0399 273.1199 15.00468196 85282
